IRIDIUM 63              
1 25286U 98021B   25151.53179568  .00000422  00000+0  13719-3 0  9992
2 25286  86.3970  89.1190 0002227  81.3780 278.7669 14.36533466421728
IRIDIUM 69              
1 25319U 98026A   25151.59549380  .00000524  00000+0  15717-3 0  9996
2 25319  86.3960 102.4340 0004681  82.3646 277.8085 14.40951289420675
IRIDIUM 71              
1 25320U 98026B   25151.39621556  .00000481  00000+0  14308-3 0  9999
2 25320  86.3960  97.2109 0003931 112.7008 247.4607 14.41145067421177
IRIDIUM 73              
1 25344U 98032C   25151.45006443  .00000594  00000+0  14298-3 0  9994
2 25344  86.4424  53.9249 0002872  77.6305 282.5222 14.51697574428137
IRIDIUM 82              
1 25467U 98051A   25151.43624873  .00026931  00000+0  78573-3 0  9991
2 25467  86.3665 117.9709 0086202   2.8487 357.3234 15.31495509421399
